HERMES-2                
1 63243U 25052AK  26068.92847372  .00009456  00000+0  34839-3 0  9999
2 63243  97.4004 324.4926 0006340  99.4160 260.7796 15.28021069 54859
STARLINK-34278          
1 64391U 25127X   26068.38327428  .00028922  00000+0  10566-2 0  9991
2 64391  42.9994 181.2082 0001176 232.4641 127.6104 15.27574143 42423
